{
  "type": "FeatureCollection",
  "features": [
    {
      "type": "Feature",
      "properties": {
        "norad_id": 39777,
        "name": "IRIDIUM 33 DEB",
        "group": "iridium-33-debris",
        "lat": 68.18906168699374,
        "lon": -21.666778404735453,
        "alt_km": 659.9762881824463,
        "timestamp": "2025-12-26T05:31:12.892385+00:00",
        "meta_object_name": "IRIDIUM 33 DEB",
        "meta_object_id": "1997-051AAJ",
        "meta_epoch": "2025-12-24T21:41:15.335808",
        "meta_mean_motion": 14.56705579,
        "meta_eccentricity": 0.00605319,
        "meta_inclination": 85.9631,
        "meta_ra_of_asc_node": 169.1412,
        "meta_arg_of_pericenter": 145.8576,
        "meta_mean_anomaly": 214.6549,
        "meta_ephemeris_type": 0,
        "meta_classification_type": "U",
        "meta_norad_cat_id": 39777,
        "meta_element_set_no": 999,
        "meta_rev_at_epoch": 60362,
        "meta_bstar": 0.0030691062,
        "meta_mean_motion_dot": 0.00014091,
        "meta_mean_motion_ddot": 0,
        "tle_line1": "1 39777U 97051AAJ 25358.90364972  .00014091  00000+0  30691-2 0  9993",
        "tle_line2": "2 39777  85.9631 169.1412 0060531 145.8576 214.6549 14.56705579603629"
      },
      "geometry": {
        "type": "Point",
        "coordinates": [
          -21.666778404735453,
          68.18906168699374
        ]
      }
    },
    {
      "type": "Feature",
      "properties": {
        "norad_id": 39778,
        "name": "IRIDIUM 33 DEB",
        "group": "iridium-33-debris",
        "lat": -16.36953088420577,
        "lon": -141.56520419752292,
        "alt_km": 720.8121435129333,
        "timestamp": "2025-12-26T05:31:12.892395+00:00",
        "meta_object_name": "IRIDIUM 33 DEB",
        "meta_object_id": "1997-051AAK",
        "meta_epoch": "2025-12-25T20:21:50.179680",
        "meta_mean_motion": 14.54348903,
        "meta_eccentricity": 0.00065112,
        "meta_inclination": 86.3769,
        "meta_ra_of_asc_node": 37.534,
        "meta_arg_of_pericenter": 359.9142,
        "meta_mean_anomaly": 0.2063,
        "meta_ephemeris_type": 0,
        "meta_classification_type": "U",
        "meta_norad_cat_id": 39778,
        "meta_element_set_no": 999,
        "meta_rev_at_epoch": 60883,
        "meta_bstar": 0.00084026877,
        "meta_mean_motion_dot": 3.588e-05,
        "meta_mean_motion_ddot": 0,
        "tle_line1": "1 39778U 97051AAK 25359.84849745  .00003588  00000+0  84027-3 0  9996",
        "tle_line2": "2 39778  86.3769  37.5340 0006511 359.9142   0.2063 14.54348903608830"
      },
      "geometry": {
        "type": "Point",
        "coordinates": [
          -141.56520419752292,
          -16.36953088420577
        ]
      }
    },
    {
      "type": "Feature",
      "properties": {
        "norad_id": 39781,
        "name": "IRIDIUM 33 DEB",
        "group": "iridium-33-debris",
        "lat": 54.29180747699629,
        "lon": 67.35058581369013,
        "alt_km": 845.878664086953,
        "timestamp": "2025-12-26T05:31:12.892405+00:00",
        "meta_object_name": "IRIDIUM 33 DEB",
        "meta_object_id": "1997-051AAN",
        "meta_epoch": "2025-12-25T00:29:27.081312",
        "meta_mean_motion": 14.20935844,
        "meta_eccentricity": 0.01727335,
        "meta_inclination": 86.3691,
        "meta_ra_of_asc_node": 252.9174,
        "meta_arg_of_pericenter": 233.7174,
        "meta_mean_anomaly": 190.1518,
        "meta_ephemeris_type": 0,
        "meta_classification_type": "U",
        "meta_norad_cat_id": 39781,
        "meta_element_set_no": 999,
        "meta_rev_at_epoch": 8281,
        "meta_bstar": 0.0049709253,
        "meta_mean_motion_dot": 0.00012539,
        "meta_mean_motion_ddot": 0,
        "tle_line1": "1 39781U 97051AAN 25359.02045233  .00012539  00000+0  49709-2 0  9993",
        "tle_line2": "2 39781  86.3691 252.9174 0172733 233.7174 190.1518 14.20935844 82817"
      },
      "geometry": {
        "type": "Point",
        "coordinates": [
          67.35058581369013,
          54.29180747699629
        ]
      }
    },
    {
      "type": "Feature",
      "properties": {
        "norad_id": 40996,
        "name": "IRIDIUM 33 DEB",
        "group": "iridium-33-debris",
        "lat": 14.889048612323041,
        "lon": -3.925713603225466,
        "alt_km": 569.7079686659363,
        "timestamp": "2025-12-26T05:31:12.892415+00:00",
        "meta_object_name": "IRIDIUM 33 DEB",
        "meta_object_id": "1997-051ABJ",
        "meta_epoch": "2025-12-25T10:52:55.970112",
        "meta_mean_motion": 14.97048042,
        "meta_eccentricity": 0.0010436,
        "meta_inclination": 86.3519,
        "meta_ra_of_asc_node": 355.4655,
        "meta_arg_of_pericenter": 27.9702,
        "meta_mean_anomaly": 124.5027,
        "meta_ephemeris_type": 0,
        "meta_classification_type": "U",
        "meta_norad_cat_id": 40996,
        "meta_element_set_no": 999,
        "meta_rev_at_epoch": 62678,
        "meta_bstar": 0.0031302,
        "meta_mean_motion_dot": 0.00036257,
        "meta_mean_motion_ddot": 0,
        "tle_line1": "1 40996U 97051ABJ 25359.45342558  .00036257  00000+0  31302-2 0  9993",
        "tle_line2": "2 40996  86.3519 355.4655 0010436  27.9702 124.5027 14.97048042626785"
      },
      "geometry": {
        "type": "Point",
        "coordinates": [
          -3.925713603225466,
          14.889048612323041
        ]
      }
    },
    {
      "type": "Feature",
      "properties": {
        "norad_id": 40998,
        "name": "IRIDIUM 33 DEB",
        "group": "iridium-33-debris",
        "lat": 49.30732382853135,
        "lon": -136.32766782332524,
        "alt_km": 736.5192588302352,
        "timestamp": "2025-12-26T05:31:12.892425+00:00",
        "meta_object_name": "IRIDIUM 33 DEB",
        "meta_object_id": "1997-051ABL",
        "meta_epoch": "2025-12-24T09:47:24.769248",
        "meta_mean_motion": 14.45133252,
        "meta_eccentricity": 0.00087498,
        "meta_inclination": 86.3815,
        "meta_ra_of_asc_node": 48.6709,
        "meta_arg_of_pericenter": 52.6459,
        "meta_mean_anomaly": 324.4141,
        "meta_ephemeris_type": 0,
        "meta_classification_type": "U",
        "meta_norad_cat_id": 40998,
        "meta_element_set_no": 999,
        "meta_rev_at_epoch": 6850,
        "meta_bstar": 0.00046540464,
        "meta_mean_motion_dot": 1.648e-05,
        "meta_mean_motion_ddot": 0,
        "tle_line1": "1 40998U 97051ABL 25358.40792557  .00001648  00000+0  46540-3 0  9994",
        "tle_line2": "2 40998  86.3815  48.6709 0008749  52.6459 324.4141 14.45133252 68504"
      },
      "geometry": {
        "type": "Point",
        "coordinates": [
          -136.32766782332524,
          49.30732382853135
        ]
      }
    },
    {
      "type": "Feature",
      "properties": {
        "norad_id": 46435,
        "name": "IRIDIUM 33 DEB",
        "group": "iridium-33-debris",
        "lat": 67.12545407607868,
        "lon": -0.7266379313508627,
        "alt_km": 845.9886090888349,
        "timestamp": "2025-12-26T05:31:12.892436+00:00",
        "meta_object_name": "IRIDIUM 33 DEB",
        "meta_object_id": "1997-051ABN",
        "meta_epoch": "2025-12-23T07:26:56.673024",
        "meta_mean_motion": 14.32901113,
        "meta_eccentricity": 0.02063954,
        "meta_inclination": 86.2811,
        "meta_ra_of_asc_node": 189.3996,
        "meta_arg_of_pericenter": 241.8575,
        "meta_mean_anomaly": 300.4526,
        "meta_ephemeris_type": 0,
        "meta_classification_type": "U",
        "meta_norad_cat_id": 46435,
        "meta_element_set_no": 999,
        "meta_rev_at_epoch": 8067,
        "meta_bstar": 0.0098042113,
        "meta_mean_motion_dot": 0.00034078,
        "meta_mean_motion_ddot": 0,
        "tle_line1": "1 46435U 97051ABN 25357.31037816  .00034078  00000+0  98042-2 0  9991",
        "tle_line2": "2 46435  86.2811 189.3996 0206395 241.8575 300.4526 14.32901113 80678"
      },
      "geometry": {
        "type": "Point",
        "coordinates": [
          -0.7266379313508627,
          67.12545407607868
        ]
      }
    },
    {
      "type": "Feature",
      "properties": {
        "norad_id": 46734,
        "name": "IRIDIUM 33 DEB",
        "group": "iridium-33-debris",
        "lat": 34.89276543533694,
        "lon": -0.44692552987828293,
        "alt_km": 756.6124226891598,
        "timestamp": "2025-12-26T05:31:12.892446+00:00",
        "meta_object_name": "IRIDIUM 33 DEB",
        "meta_object_id": "1997-051ABR",
        "meta_epoch": "2025-12-23T07:42:11.180736",
        "meta_mean_motion": 14.41950916,
        "meta_eccentricity": 0.00375691,
        "meta_inclination": 86.2641,
        "meta_ra_of_asc_node": 358.2178,
        "meta_arg_of_pericenter": 299.6503,
        "meta_mean_anomaly": 123.5651,
        "meta_ephemeris_type": 0,
        "meta_classification_type": "U",
        "meta_norad_cat_id": 46734,
        "meta_element_set_no": 999,
        "meta_rev_at_epoch": 63163,
        "meta_bstar": 0.0010295637,
        "meta_mean_motion_dot": 3.42e-05,
        "meta_mean_motion_ddot": 0,
        "tle_line1": "1 46734U 97051ABR 25357.32096274  .00003420  00000+0  10296-2 0  9999",
        "tle_line2": "2 46734  86.2641 358.2178 0037569 299.6503 123.5651 14.41950916631633"
      },
      "geometry": {
        "type": "Point",
        "coordinates": [
          -0.44692552987828293,
          34.89276543533694
        ]
      }
    }
  ]
}